STARLINK-36870          
1 67897U 26035U   26063.55958101 -.00263452  27714-4 -51056-3 0  9993
2 67897  97.2760 355.5181 0000891  38.1993 321.9349 16.00269203  3024
STARLINK-36810          
1 67898U 26035V   26063.30880836 -.00280598  31237-4 -52828-3 0  9999
2 67898  97.2753 355.2471 0000956 112.9016 247.2364 16.00780605  2980
STARLINK-36878          
1 67899U 26035W   26063.55766656 -.00325919  40946-4 -62158-3 0  9991
2 67899  97.2744 355.5215 0000957 102.8484 257.2902 16.00563329  3025
STARLINK-36361          
1 67900U 26035X   26063.55696362 -.00071718  41955-5 -13387-3 0  9997
2 67900  97.2745 355.5225 0000275 132.9674 227.1628 16.00794751  3024
STARLINK-36336          
1 67901U 26035Y   26063.36732982 -.00130963  87582-5 -23903-3 0  9995
2 67901  97.2744 355.3203 0001776  37.9588 322.1816 16.01262092  2992
STARLINK-36876          
1 67902U 26035Z   26063.00001157 -.01093955  39445-3 -19706-2 0  9998
2 67902  97.2750 354.9178 0001091 118.7727 276.8029 16.01665709  2846
STARLINK-36257          
1 67903U 26035AA  26063.30566882 -.00310406  37765-4 -56797-3 0  9991
2 67903  97.2739 355.2501 0000633 110.2986 249.8362 16.01284235  2989
STARLINK-36301          
1 67932U 26037A   26062.58336806 -.01357719  55759-3 -29675-2 0  9990
2 67932  43.0002 236.3782 0001381 264.0887 318.0085 15.97346447  2127
STARLINK-36852          
1 67933U 26037B   26062.58336806 -.01355793  55680-3 -29446-2 0  9990
2 67933  43.0004 236.3747 0001249 264.2220 319.2231 15.97460287  2212
STARLINK-36861          
1 67934U 26037C   26062.58336806 -.01356323  55799-3 -29234-2 0  9997
2 67934  43.0003 236.3701 0001361 268.5302 316.8494 15.97597259  2219
STARLINK-36860          
1 67935U 26037D   26062.58336806 -.01365707  56593-3 -29201-2 0  9991
2 67935  43.0003 236.3654 0001512 272.0924 315.3019 15.97742292  2211
STARLINK-36848          
1 67936U 26037E   26062.58336806 -.01359471  56277-3 -28636-2 0  9993
2 67936  43.0003 236.3553 0001546 270.1059 321.0753 15.98009049  2211
STARLINK-36370          
1 67937U 26037F   26062.58336806 -.01357617  56061-3 -28804-2 0  9992
2 67937  43.0005 236.3601 0001662 269.9900 319.4677 15.97879454  2218
STARLINK-36371          
1 67938U 26037G   26062.58336806 -.01353827  55918-3 -28331-2 0  9997
2 67938  43.0003 236.3511 0001542 270.2563 322.4725 15.98125376  2210
STARLINK-36246          
1 67939U 26037H   26062.58336806 -.01345738  55373-3 -27979-2 0  9992
2 67939  43.0004 236.3476 0001674 270.5425 323.7249 15.98239336  2125
STARLINK-36907          
1 67940U 26037J   26062.58336806 -.01338137  55021-3 -27232-2 0  9991
2 67940  43.0003 236.3336 0001614 266.6299 332.8743 15.98618727  2215
